{
  "norad_id": 65513,
  "name": "STARLINK-35019",
  "history": [
    {
      "epoch": "2026-03-28T16:08:40.153344Z",
      "apogee_km": 476.0255308300875,
      "perigee_km": 474.3429034048604,
      "latitude_deg": -2.1011557619778063e-05,
      "longitude_deg": 114.76101238436583,
      "height_km": 476.1188412003584,
      "semi_major_axis_km": 6853.321217117474,
      "eccentricity": 0.00012276,
      "inclination_deg": 53.159,
      "raan_deg": 183.0181,
      "arg_perigee_deg": 92.4927,
      "mean_anomaly_deg": 267.6214,
      "mean_motion_rev_day": 15.30210333
    }
  ]
}