{"fetched_at":"2026-03-29T16:36:15Z","count":15609,"tles":[{"name":"STARLINK-35019","line1":"1 65513U 25198X   26087.67268696  .00040974  00000+0  13875-2 0  9997","line2":"2 65513  53.1590 183.0181 0001227  92.4927 267.6214 15.30210333 31522","category":"Starlink"}]}